HORS 4 (RS82S)          
1 61754U 24199V   26115.48723631  .00039900  00000+0  59301-3 0  9998
2 61754  97.3014 351.3074 0008548 108.3010 251.9175 15.55031998129446
HORIZON (RS59S)         
1 61757U 24199Y   26115.39264887  .00402453  62365-4  13554-2 0  9997
2 61757  97.2914 356.8600 0005896 120.0719 240.1140 15.89987367129799
ARCTICSAT 1 (RS74S)     
1 61762U 24199AD  26114.92720727  .00070579  00000+0  42412-3 0  9990
2 61762  97.2986 355.3724 0006853 100.0740 260.1300 15.77517111129659
SIT-2086                
1 61764U 24199AF  26115.49690002  .00023398  00000+0  41928-3 0  9995
2 61764  97.3040 351.0566 0008544 100.1409 260.0806 15.49910697126261
HYPERVIEW 1G (RS66S)    
1 61772U 24199AP  26115.53750954  .00076335  00000+0  77428-3 0  9995
2 61772  97.2987 353.0459 0009431 108.9148 251.3134 15.64935990126418
ALTAIR (RS65S)          
1 61779U 24199AW  26115.81677556  .00010930  00000+0  31304-3 0  9991
2 61779  97.3108 345.5317 0014548 129.6682 230.5848 15.35993145129078
ASRTU-1 (AO-123)        
1 61781U 24199AY  26115.82778411  .00009166  00000+0  27222-3 0  9990
2 61781  97.3080 344.9796 0015441 132.3111 227.9444 15.34887022125898
TUSUR GO (RS78S)        
1 61782U 24199AZ  26115.84296272  .00607663  15749-3  14895-2 0  9990
2 61782  97.2876 356.4813 0005900 136.2055 223.9690 15.96099349126679
SAMSAT-IONOSPHERE (RS7*)
1 61784U 24199BB  26115.75341345  .00041344  00000+0  65461-3 0  9998
2 61784  97.3038 350.5627 0011488 112.5802 247.6668 15.53245241129415
RTU MIREA 1 (RS51S)     
1 61785U 24199BC  26115.81284120  .00053463  00000+0  77071-3 0  9998
2 61785  97.3029 351.2256 0011578 110.2799 249.9702 15.55766847126314
TEVEL2-4                
1 63213U 25052D   26115.26771582  .00019818  00000+0  62842-3 0  9993
2 63213  97.3957  11.6312 0001093 359.6780   0.4462 15.32735645 62007
TEVEL2-5                
1 63214U 25052E   26115.15215563  .00019546  00000+0  62277-3 0  9994
2 63214  97.3957  11.4778 0001140 357.2193   2.9043 15.32586108 61983
TEVEL2-6                
1 63215U 25052F   26115.42436666  .00019682  00000+0  62762-3 0  9994
2 63215  97.3965  11.7349 0001144 355.2286   4.8945 15.32557607 62025
TEVEL2-1                
1 63217U 25052H   26115.50153338  .00017217  00000+0  55761-3 0  9990
2 63217  97.3935  11.4958 0001802   5.5972 354.5289 15.32086450 62024
TEVEL2-3                
1 63218U 25052J   26115.23663825  .00019171  00000+0  61973-3 0  9991
2 63218  97.3940  11.2470 0001849   7.6495 352.4774 15.32124691 61982
TEVEL2-2                
1 63219U 25052K   26115.24082611  .00019275  00000+0  62382-3 0  9991
2 63219  97.3935  11.2374 0001917   6.2674 353.8591 15.32085482 61986
