[{"OBJECT_NAME":"HORS 4 (RS82S)","OBJECT_ID":"2024-199V","EPOCH":"2026-04-25T11:41:37.217184","MEAN_MOTION":15.55031998,"ECCENTRICITY":0.0008548,"INCLINATION":97.3014,"RA_OF_ASC_NODE":351.3074,"ARG_OF_PERICENTER":108.301,"MEAN_ANOMALY":251.9175,"EPHEMERIS_TYPE":0,"CLASSIFICATION_TYPE":"U","NORAD_CAT_ID":61754,"ELEMENT_SET_NO":999,"REV_AT_EPOCH":12944,"BSTAR":0.00059301,"MEAN_MOTION_DOT":0.000399,"MEAN_MOTION_DDOT":0},{"OBJECT_NAME":"HORIZON (RS59S)","OBJECT_ID":"2024-199Y","EPOCH":"2026-04-25T09:25:24.862368","MEAN_MOTION":15.89987367,"ECCENTRICITY":0.0005896,"INCLINATION":97.2914,"RA_OF_ASC_NODE":356.86,"ARG_OF_PERICENTER":120.0719,"MEAN_ANOMALY":240.114,"EPHEMERIS_TYPE":0,"CLASSIFICATION_TYPE":"U","NORAD_CAT_ID":61757,"ELEMENT_SET_NO":999,"REV_AT_EPOCH":12979,"BSTAR":0.0013554,"MEAN_MOTION_DOT":0.00402453,"MEAN_MOTION_DDOT":6.2365e-5},{"OBJECT_NAME":"ARCTICSAT 1 (RS74S)","OBJECT_ID":"2024-199AD","EPOCH":"2026-04-24T22:15:10.708128","MEAN_MOTION":15.77517111,"ECCENTRICITY":0.00068537,"INCLINATION":97.2986,"RA_OF_ASC_NODE":355.3724,"ARG_OF_PERICENTER":100.074,"MEAN_ANOMALY":260.13,"EPHEMERIS_TYPE":0,"CLASSIFICATION_TYPE":"U","NORAD_CAT_ID":61762,"ELEMENT_SET_NO":999,"REV_AT_EPOCH":12965,"BSTAR":0.00042412045,"MEAN_MOTION_DOT":0.00070579,"MEAN_MOTION_DDOT":0},{"OBJECT_NAME":"SIT-2086","OBJECT_ID":"2024-199AF","EPOCH":"2026-04-25T11:55:32.161728","MEAN_MOTION":15.49910697,"ECCENTRICITY":0.0008544,"INCLINATION":97.304,"RA_OF_ASC_NODE":351.0566,"ARG_OF_PERICENTER":100.1409,"MEAN_ANOMALY":260.0806,"EPHEMERIS_TYPE":0,"CLASSIFICATION_TYPE":"U","NORAD_CAT_ID":61764,"ELEMENT_SET_NO":999,"REV_AT_EPOCH":12626,"BSTAR":0.00041928,"MEAN_MOTION_DOT":0.00023398,"MEAN_MOTION_DDOT":0},{"OBJECT_NAME":"HYPERVIEW 1G (RS66S)","OBJECT_ID":"2024-199AP","EPOCH":"2026-04-25T12:54:00.824256","MEAN_MOTION":15.6493599,"ECCENTRICITY":0.0009431,"INCLINATION":97.2987,"RA_OF_ASC_NODE":353.0459,"ARG_OF_PERICENTER":108.9148,"MEAN_ANOMALY":251.3134,"EPHEMERIS_TYPE":0,"CLASSIFICATION_TYPE":"U","NORAD_CAT_ID":61772,"ELEMENT_SET_NO":999,"REV_AT_EPOCH":12641,"BSTAR":0.00077428,"MEAN_MOTION_DOT":0.00076335,"MEAN_MOTION_DDOT":0},{"OBJECT_NAME":"ALTAIR (RS65S)","OBJECT_ID":"2024-199AW","EPOCH":"2026-04-25T19:36:09.408384","MEAN_MOTION":15.35993145,"ECCENTRICITY":0.0014548,"INCLINATION":97.3108,"RA_OF_ASC_NODE":345.5317,"ARG_OF_PERICENTER":129.6682,"MEAN_ANOMALY":230.5848,"EPHEMERIS_TYPE":0,"CLASSIFICATION_TYPE":"U","NORAD_CAT_ID":61779,"ELEMENT_SET_NO":999,"REV_AT_EPOCH":12907,"BSTAR":0.00031304,"MEAN_MOTION_DOT":0.0001093,"MEAN_MOTION_DDOT":0},{"OBJECT_NAME":"ASRTU-1 (AO-123)","OBJECT_ID":"2024-199AY","EPOCH":"2026-04-25T19:52:00.547104","MEAN_MOTION":15.34887022,"ECCENTRICITY":0.0015441,"INCLINATION":97.308,"RA_OF_ASC_NODE":344.9796,"ARG_OF_PERICENTER":132.3111,"MEAN_ANOMALY":227.9444,"EPHEMERIS_TYPE":0,"CLASSIFICATION_TYPE":"U","NORAD_CAT_ID":61781,"ELEMENT_SET_NO":999,"REV_AT_EPOCH":12589,"BSTAR":0.00027222,"MEAN_MOTION_DOT":9.166e-5,"MEAN_MOTION_DDOT":0},{"OBJECT_NAME":"TUSUR GO (RS78S)","OBJECT_ID":"2024-199AZ","EPOCH":"2026-04-25T20:13:51.979008","MEAN_MOTION":15.96099349,"ECCENTRICITY":0.00059,"INCLINATION":97.2876,"RA_OF_ASC_NODE":356.4813,"ARG_OF_PERICENTER":136.2055,"MEAN_ANOMALY":223.969,"EPHEMERIS_TYPE":0,"CLASSIFICATION_TYPE":"U","NORAD_CAT_ID":61782,"ELEMENT_SET_NO":999,"REV_AT_EPOCH":12667,"BSTAR":0.0014895,"MEAN_MOTION_DOT":0.00607663,"MEAN_MOTION_DDOT":0.00015749},{"OBJECT_NAME":"SAMSAT-IONOSPHERE (RS75S)","OBJECT_ID":"2024-199BB","EPOCH":"2026-04-25T18:04:54.922080","MEAN_MOTION":15.53245241,"ECCENTRICITY":0.0011488,"INCLINATION":97.3038,"RA_OF_ASC_NODE":350.5627,"ARG_OF_PERICENTER":112.5802,"MEAN_ANOMALY":247.6668,"EPHEMERIS_TYPE":0,"CLASSIFICATION_TYPE":"U","NORAD_CAT_ID":61784,"ELEMENT_SET_NO":999,"REV_AT_EPOCH":12941,"BSTAR":0.00065461,"MEAN_MOTION_DOT":0.00041344,"MEAN_MOTION_DDOT":0},{"OBJECT_NAME":"RTU MIREA 1 (RS51S)","OBJECT_ID":"2024-199BC","EPOCH":"2026-04-25T19:30:29.479680","MEAN_MOTION":15.55766847,"ECCENTRICITY":0.0011578,"INCLINATION":97.3029,"RA_OF_ASC_NODE":351.2256,"ARG_OF_PERICENTER":110.2799,"MEAN_ANOMALY":249.9702,"EPHEMERIS_TYPE":0,"CLASSIFICATION_TYPE":"U","NORAD_CAT_ID":61785,"ELEMENT_SET_NO":999,"REV_AT_EPOCH":12631,"BSTAR":0.00077071,"MEAN_MOTION_DOT":0.00053463,"MEAN_MOTION_DDOT":0},{"OBJECT_NAME":"TEVEL2-4","OBJECT_ID":"2025-052D","EPOCH":"2026-04-25T06:25:30.646848","MEAN_MOTION":15.32735645,"ECCENTRICITY":0.0001093,"INCLINATION":97.3957,"RA_OF_ASC_NODE":11.6312,"ARG_OF_PERICENTER":359.678,"MEAN_ANOMALY":0.4462,"EPHEMERIS_TYPE":0,"CLASSIFICATION_TYPE":"U","NORAD_CAT_ID":63213,"ELEMENT_SET_NO":999,"REV_AT_EPOCH":6200,"BSTAR":0.00062842,"MEAN_MOTION_DOT":0.00019818,"MEAN_MOTION_DDOT":0},{"OBJECT_NAME":"TEVEL2-5","OBJECT_ID":"2025-052E","EPOCH":"2026-04-25T03:39:06.246432","MEAN_MOTION":15.32586108,"ECCENTRICITY":0.00011407,"INCLINATION":97.3957,"RA_OF_ASC_NODE":11.4778,"ARG_OF_PERICENTER":357.2193,"MEAN_ANOMALY":2.9043,"EPHEMERIS_TYPE":0,"CLASSIFICATION_TYPE":"U","NORAD_CAT_ID":63214,"ELEMENT_SET_NO":999,"REV_AT_EPOCH":6198,"BSTAR":0.00062277477,"MEAN_MOTION_DOT":0.00019546,"MEAN_MOTION_DDOT":0},{"OBJECT_NAME":"TEVEL2-6","OBJECT_ID":"2025-052F","EPOCH":"2026-04-25T10:11:05.279424","MEAN_MOTION":15.32557607,"ECCENTRICITY":0.0001144,"INCLINATION":97.3965,"RA_OF_ASC_NODE":11.7349,"ARG_OF_PERICENTER":355.2286,"MEAN_ANOMALY":4.8945,"EPHEMERIS_TYPE":0,"CLASSIFICATION_TYPE":"U","NORAD_CAT_ID":63215,"ELEMENT_SET_NO":999,"REV_AT_EPOCH":6202,"BSTAR":0.00062762,"MEAN_MOTION_DOT":0.00019682,"MEAN_MOTION_DDOT":0},{"OBJECT_NAME":"TEVEL2-1","OBJECT_ID":"2025-052H","EPOCH":"2026-04-25T12:02:12.484032","MEAN_MOTION":15.3208645,"ECCENTRICITY":0.0001802,"INCLINATION":97.3935,"RA_OF_ASC_NODE":11.4958,"ARG_OF_PERICENTER":5.5972,"MEAN_ANOMALY":354.5289,"EPHEMERIS_TYPE":0,"CLASSIFICATION_TYPE":"U","NORAD_CAT_ID":63217,"ELEMENT_SET_NO":999,"REV_AT_EPOCH":6202,"BSTAR":0.00055761,"MEAN_MOTION_DOT":0.00017217,"MEAN_MOTION_DDOT":0},{"OBJECT_NAME":"TEVEL2-3","OBJECT_ID":"2025-052J","EPOCH":"2026-04-25T05:40:45.544800","MEAN_MOTION":15.32124691,"ECCENTRICITY":0.0001849,"INCLINATION":97.394,"RA_OF_ASC_NODE":11.247,"ARG_OF_PERICENTER":7.6495,"MEAN_ANOMALY":352.4774,"EPHEMERIS_TYPE":0,"CLASSIFICATION_TYPE":"U","NORAD_CAT_ID":63218,"ELEMENT_SET_NO":999,"REV_AT_EPOCH":6198,"BSTAR":0.00061973,"MEAN_MOTION_DOT":0.00019171,"MEAN_MOTION_DDOT":0},{"OBJECT_NAME":"TEVEL2-2","OBJECT_ID":"2025-052K","EPOCH":"2026-04-25T05:46:47.375904","MEAN_MOTION":15.32085482,"ECCENTRICITY":0.0001917,"INCLINATION":97.3935,"RA_OF_ASC_NODE":11.2374,"ARG_OF_PERICENTER":6.2674,"MEAN_ANOMALY":353.8591,"EPHEMERIS_TYPE":0,"CLASSIFICATION_TYPE":"U","NORAD_CAT_ID":63219,"ELEMENT_SET_NO":999,"REV_AT_EPOCH":6198,"BSTAR":0.00062382,"MEAN_MOTION_DOT":0.00019275,"MEAN_MOTION_DDOT":0}]
